     2.100          NAVIGATION                              RINEX VERSION / TYPE
fic2rin                                 04/10/2009 01:25:42 PGM / RUN BY / DATE
                                                            END OF HEADER
17 09  4  9  2  0  0.0  .535151921213D-04  .170530256582D-11  .000000000000D+00
     .200000000000D+02 -.466562500000D+02  .444625663301D-08  .622525897971D+00
    -.232271850109D-05  .440019299276D-02  .103954225779D-04  .515366539001D+04
     .352800000000D+06 -.260770320892D-07 -.550146666948D+00  .147148966789D-06
     .959917562294D+00  .179562500000D+03 -.267727638221D+01 -.799961893052D-08
    -.622883088438D-09  .100000000000D+01  .152600000000D+04  .000000000000D+00
     .240000000000D+01  .000000000000D+00 -.102445483208D-07  .200000000000D+02
     .345606000000D+06  .400000000000D+01
18 09  4  9  2  0  0.0 -.672899186611D-04  .341060513165D-11  .000000000000D+00
     .680000000000D+02 -.303125000000D+01  .540165357198D-08  .186157736425D+01
    -.132247805595D-06  .101369381882D-01  .114366412163D-05  .515358518410D+04
     .352800000000D+06 -.322237610817D-06  .155798930263D+01 -.242143869400D-07
     .942690481837D+00  .346187500000D+03 -.242853855559D+01 -.889358473922D-08
     .992898501065D-10  .100000000000D+01  .152600000000D+04  .000000000000D+00
     .240000000000D+01  .000000000000D+00 -.107102096081D-07  .680000000000D+02
     .345606000000D+06  .400000000000D+01
19 09  4  9  2  0  0.0  .287638977170D-04 -.909494701773D-12  .000000000000D+00
     .460000000000D+02 -.435625000000D+02  .439625455022D-08 -.351719533730D-01
    -.239163637161D-05  .543459970504D-02  .116415321827D-04  .515359166908D+04
     .352800000000D+06  .113621354103D-06 -.493959278015D+00 -.875443220139D-07
     .957690873703D+00  .155312500000D+03 -.377424518503D+00 -.804497796277D-08
    -.702172105430D-09  .100000000000D+01  .152600000000D+04  .000000000000D+00
     .240000000000D+01  .000000000000D+00 -.149011611938D-07  .460000000000D+02
     .345606000000D+06  .400000000000D+01
20 09  4  9  2  0  0.0  .858628191054D-04 -.102318153949D-11  .000000000000D+00
     .440000000000D+02  .151562500000D+02  .530057793320D-08  .203232579775D+01
     .782310962677D-06  .404566887300D-02  .104680657387D-05  .515363391495D+04
     .352800000000D+06  .167638063431D-07  .150414190091D+01 -.391155481339D-07
     .942332963676D+00  .349531250000D+03  .133852670066D+01 -.878322299935D-08
     .185722021782D-09  .100000000000D+01  .152600000000D+04  .000000000000D+00
     .240000000000D+01  .000000000000D+00 -.651925802231D-08  .440000000000D+02
     .345606000000D+06  .400000000000D+01
21 09  4  9  2  0  0.0  .202273949981D-04 -.193267624127D-11  .000000000000D+00
     .270000000000D+02  .129500000000D+03  .467376610969D-08 -.310941356582D+01
     .651925802231D-05  .149643489858D-01  .100862234831D-04  .515363819504D+04
     .352800000000D+06 -.242143869400D-07  .499308167332D+00 -.124797224998D-06
     .934728386343D+00  .172500000000D+03 -.262511418311D+01 -.802319134098D-08
     .453233164695D-09  .100000000000D+01  .152600000000D+04  .000000000000D+00
     .240000000000D+01  .000000000000D+00 -.116415321827D-07  .270000000000D+02
     .345606000000D+06  .400000000000D+01
22 09  4  9  2  0  0.0  .201993156224D-03 -.568434188608D-12  .000000000000D+00
     .440000000000D+02 -.412500000000D+01  .551451541599D-08  .814550710655D+00
    -.255182385445D-06  .487537635490D-02  .990927219391D-06  .515365741920D+04
     .352800000000D+06 -.987201929092D-07  .156378301560D+01  .130385160446D-07
     .940351787849D+00  .347437500000D+03 -.185514786562D+01 -.899823195534D-08
     .589310261424D-10  .100000000000D+01  .152600000000D+04  .000000000000D+00
     .240000000000D+01  .000000000000D+00 -.181607902050D-07  .440000000000D+02
     .345606000000D+06  .400000000000D+01
23 09  4  9  2  0  0.0  .389222986996D-03  .341060513165D-12  .000000000000D+00
     .107000000000D+03 -.113656250000D+03  .425803450709D-08 -.573891720391D+00
    -.599771738052D-05  .592014810536D-02  .954605638981D-05  .515362775803D+04
     .352800000000D+06  .745058059692D-07  .258038274474D+01 -.949949026108D-07
     .970684629117D+00  .198343750000D+03  .287455588984D+01 -.801926260590D-08
    -.256082095419D-09  .100000000000D+01  .152600000000D+04  .000000000000D+00
     .340000000000D+01  .000000000000D+00 -.200234353542D-07  .107000000000D+03
     .345606000000D+06  .400000000000D+01
24 09  4  9  2  0  0.0  .179797876626D-03  .295585778076D-11  .000000000000D+00
     .110000000000D+03  .113687500000D+03  .438518266046D-08  .180357599786D+01
     .589154660702D-05  .680454098620D-02  .936910510063D-05  .515368232727D+04
     .352800000000D+06  .558793544769D-08  .530615462721D+00  .216066837311D-06
     .951344237683D+00  .194468750000D+03 -.642532114624D+00 -.794854537453D-08
     .352157525917D-09  .100000000000D+01  .152600000000D+04  .000000000000D+00
     .340000000000D+01  .000000000000D+00 -.139698386192D-08  .110000000000D+03
     .345606000000D+06  .400000000000D+01
25 09  4  9  2  0  0.0  .348736997694D-03  .214868123294D-10  .000000000000D+00
     .770000000000D+02  .180625000000D+02  .425696303388D-08  .230295790504D+01
     .996515154839D-06  .116164378123D-01  .116582959890D-04  .515365838623D+04
     .352800000000D+06  .201165676117D-06 -.275589338035D+01 -.633299350739D-07
     .969313076123D+00  .156781250000D+03 -.121061570499D+01 -.762924636016D-08
     .346443002170D-09  .100000000000D+01  .152600000000D+04  .000000000000D+00
     .485000000000D+01  .000000000000D+00 -.745058059692D-08  .770000000000D+02
     .345606000000D+06  .400000000000D+01
26 09  4  9  2  0  0.0  .557973980904D-04  .193267624127D-11  .000000000000D+00
     .650000000000D+02 -.858750000000D+02  .376122809882D-08 -.141946491969D+01
    -.431388616562D-05  .203500152566D-01  .100322067738D-04  .515486695671D+04
     .352800000000D+06  .420957803726D-06  .262895818470D+01  .163912773132D-06
     .993035790807D+00  .193781250000D+03  .991127610203D+00 -.753745682247D-08
    -.201436962087D-09  .100000000000D+01  .152600000000D+04  .000000000000D+00
     .240000000000D+01  .000000000000D+00 -.651925802231D-08  .650000000000D+02
     .345606000000D+06  .400000000000D+01
27 09  4  9  2  0  0.0  .392356887460D-04  .318323145621D-11  .000000000000D+00
     .490000000000D+02  .255312500000D+02  .434053794369D-08  .686591368475D+00
     .134482979774D-05  .208987350343D-01  .119023025036D-04  .515511585045D+04
     .352800000000D+06 -.298023223877D-06 -.271974810369D+01 -.109896063805D-06
     .973986701473D+00  .167343750000D+03 -.162235322306D+01 -.818176937496D-08
     .363229415677D-09  .100000000000D+01  .152600000000D+04  .000000000000D+00
     .240000000000D+01  .000000000000D+00 -.419095158577D-08  .490000000000D+02
     .345606000000D+06  .400000000000D+01
28 09  4  9  2  0  0.0 -.239363871515D-04 -.113686837722D-12  .000000000000D+00
     .340000000000D+02  .209375000000D+01  .507199698332D-08  .110090791602D+01
     .102445483208D-06  .148370935349D-01  .416114926338D-05  .515363393402D+04
     .352800000000D+06 -.242143869400D-06 -.158440208375D+01  .856816768646D-07
     .965744125085D+00  .309562500000D+03 -.203282053909D+01 -.863250243552D-08
    -.170364239212D-09  .100000000000D+01  .152600000000D+04  .000000000000D+00
     .240000000000D+01  .000000000000D+00 -.107102096081D-07  .340000000000D+02
     .345606000000D+06  .400000000000D+01
29 09  4  9  2  0  0.0  .754743814468D-05  .409272615798D-11  .000000000000D+00
     .760000000000D+02 -.373125000000D+02  .431303679815D-08 -.308500655072D+01
    -.202842056751D-05  .339481921401D-02  .109132379293D-04  .515370977974D+04
     .352800000000D+06  .428408384323D-07 -.541953529877D+00  .335276126862D-07
     .960132220652D+00  .167156250000D+03 -.133752985950D+01 -.783139763772D-08
    -.634669293666D-09  .100000000000D+01  .152600000000D+04  .000000000000D+00
     .240000000000D+01  .000000000000D+00 -.884756445885D-08  .760000000000D+02
     .345606000000D+06  .400000000000D+01
30 09  4  9  2  0  0.0  .137961469591D-03  .261479726760D-11  .000000000000D+00
     .890000000000D+02  .750000000000D+01  .534022244170D-08  .156364501122D+01
     .521540641785D-07  .112603743328D-01  .375881791115D-05  .515360574913D+04
     .352800000000D+06 -.119209289551D-06 -.165653976798D+01 -.288709998131D-06
     .951102723075D+00  .301812500000D+03  .141375551177D+01 -.857285709391D-08
    -.117862052285D-10  .100000000000D+01  .152600000000D+04  .000000000000D+00
     .485000000000D+01  .000000000000D+00 -.791624188423D-08  .890000000000D+02
     .345606000000D+06  .400000000000D+01
31 09  4  9  2  0  0.0 -.571729615331D-04 -.102318153949D-11  .000000000000D+00
     .770000000000D+02  .429062500000D+02  .428624996809D-08 -.229002625781D+01
     .231526792049D-05  .716542522423D-02  .119190663099D-04  .515368535042D+04
     .352800000000D+06  .335276126862D-07 -.266371271780D+01  .162050127983D-06
     .972359875126D+00  .155656250000D+03 -.115549690311D+01 -.770674958848D-08
     .572881005651D-09  .100000000000D+01  .152600000000D+04  .000000000000D+00
     .340000000000D+01  .000000000000D+00 -.130385160446D-07  .770000000000D+02
     .345606000000D+06  .400000000000D+01
32 09  4  9  2  0  0.0  .277050305158D-03 -.488853402203D-11  .000000000000D+00
     .510000000000D+02 -.896875000000D+01  .490341853278D-08 -.139923821056D+01
    -.191852450371D-06  .133809770923D-01  .186823308468D-05  .515359174347D+04
     .352800000000D+06 -.288709998131D-06  .161275579288D+01  .163912773132D-06
     .964293068345D+00  .350500000000D+03 -.117925182978D+01 -.870464829783D-08
     .126076680171D-09  .100000000000D+01  .152600000000D+04  .000000000000D+00
     .240000000000D+01  .000000000000D+00 -.325962901115D-08  .510000000000D+02
     .345606000000D+06  .400000000000D+01
